CCSDS_OMM_VERS = 2.0
CREATION_DATE  = 
ORIGINATOR     = 

OBJECT_NAME    = INTERCOSMOS 25
OBJECT_ID      = 1991-086A
CENTER_NAME    = EARTH
REF_FRAME      = TEME
TIME_SYSTEM    = UTC
MEAN_ELEMENT_THEORY = SGP/SGP4

EPOCH          = 2026-02-08T20:14:40.521120
MEAN_MOTION    = 12.11918738
ECCENTRICITY   = .1486767
INCLINATION    = 82.6086
RA_OF_ASC_NODE = 327.4393
ARG_OF_PERICENTER = 179.0752
MEAN_ANOMALY   = 181.3690

EPHEMERIS_TYPE = 0
CLASSIFICATION_TYPE = U
NORAD_CAT_ID   = 21819
ELEMENT_SET_NO = 999
REV_AT_EPOCH   = 49319
BSTAR          = .25605E-3
MEAN_MOTION_DOT = .132E-4
MEAN_MOTION_DDOT = 0

CCSDS_OMM_VERS = 2.0
CREATION_DATE  = 
ORIGINATOR     = 

OBJECT_NAME    = SL-8 R/B
OBJECT_ID      = 1992-008B
CENTER_NAME    = EARTH
REF_FRAME      = TEME
TIME_SYSTEM    = UTC
MEAN_ELEMENT_THEORY = SGP/SGP4

EPOCH          = 2026-02-08T16:57:08.597664
MEAN_MOTION    = 13.75969676
ECCENTRICITY   = .0033832
INCLINATION    = 82.9263
RA_OF_ASC_NODE = 289.3399
ARG_OF_PERICENTER = 214.0108
MEAN_ANOMALY   = 200.3399

EPHEMERIS_TYPE = 0
CLASSIFICATION_TYPE = U
NORAD_CAT_ID   = 21876
ELEMENT_SET_NO = 999
REV_AT_EPOCH   = 70543
BSTAR          = .30783E-4
MEAN_MOTION_DOT = .45E-6
MEAN_MOTION_DDOT = 0

CCSDS_OMM_VERS = 2.0
CREATION_DATE  = 
ORIGINATOR     = 

OBJECT_NAME    = SL-8 R/B
OBJECT_ID      = 1992-020B
CENTER_NAME    = EARTH
REF_FRAME      = TEME
TIME_SYSTEM    = UTC
MEAN_ELEMENT_THEORY = SGP/SGP4

EPOCH          = 2026-02-08T19:47:04.512192
MEAN_MOTION    = 13.75545154
ECCENTRICITY   = .0029297
INCLINATION    = 82.9330
RA_OF_ASC_NODE = 175.1865
ARG_OF_PERICENTER = 20.9242
MEAN_ANOMALY   = 87.9646

EPHEMERIS_TYPE = 0
CLASSIFICATION_TYPE = U
NORAD_CAT_ID   = 21938
ELEMENT_SET_NO = 999
REV_AT_EPOCH   = 69716
BSTAR          = .12266E-3
MEAN_MOTION_DOT = .134E-5
MEAN_MOTION_DDOT = 0

CCSDS_OMM_VERS = 2.0
CREATION_DATE  = 
ORIGINATOR     = 

OBJECT_NAME    = USA 81
OBJECT_ID      = 1992-023A
CENTER_NAME    = EARTH
REF_FRAME      = TEME
TIME_SYSTEM    = UTC
MEAN_ELEMENT_THEORY = SGP/SGP4

EPOCH          = 2026-02-08T19:22:44.265792
MEAN_MOTION    = 14.32357253
ECCENTRICITY   = .0002601
INCLINATION    = 85.0120
RA_OF_ASC_NODE = 148.0948
ARG_OF_PERICENTER = 103.4730
MEAN_ANOMALY   = 256.6752

EPHEMERIS_TYPE = 0
CLASSIFICATION_TYPE = U
NORAD_CAT_ID   = 21949
ELEMENT_SET_NO = 999
REV_AT_EPOCH   = 9065
BSTAR          = .86157E-4
MEAN_MOTION_DOT = .253E-5
MEAN_MOTION_DDOT = 0

CCSDS_OMM_VERS = 2.0
CREATION_DATE  = 
ORIGINATOR     = 

OBJECT_NAME    = COSMOS 2219
OBJECT_ID      = 1992-076A
CENTER_NAME    = EARTH
REF_FRAME      = TEME
TIME_SYSTEM    = UTC
MEAN_ELEMENT_THEORY = SGP/SGP4

EPOCH          = 2026-02-08T12:26:14.329824
MEAN_MOTION    = 14.14076528
ECCENTRICITY   = .00203345
INCLINATION    = 71.0583
RA_OF_ASC_NODE = 79.0541
ARG_OF_PERICENTER = 247.1455
MEAN_ANOMALY   = 112.7520

EPHEMERIS_TYPE = 0
CLASSIFICATION_TYPE = U
NORAD_CAT_ID   = 22219
ELEMENT_SET_NO = 999
REV_AT_EPOCH   = 71425
BSTAR          = -.32289399E-4
MEAN_MOTION_DOT = -.109E-5
MEAN_MOTION_DDOT = 0

CCSDS_OMM_VERS = 2.0
CREATION_DATE  = 
ORIGINATOR     = 

OBJECT_NAME    = SL-16 R/B
OBJECT_ID      = 1992-076B
CENTER_NAME    = EARTH
REF_FRAME      = TEME
TIME_SYSTEM    = UTC
MEAN_ELEMENT_THEORY = SGP/SGP4

EPOCH          = 2026-02-08T19:49:00.002208
MEAN_MOTION    = 14.16855763
ECCENTRICITY   = .0011485
INCLINATION    = 70.9979
RA_OF_ASC_NODE = 249.1759
ARG_OF_PERICENTER = 147.9406
MEAN_ANOMALY   = 295.9218

EPHEMERIS_TYPE = 0
CLASSIFICATION_TYPE = U
NORAD_CAT_ID   = 22220
ELEMENT_SET_NO = 999
REV_AT_EPOCH   = 71774
BSTAR          = .49677E-4
MEAN_MOTION_DOT = .52E-6
MEAN_MOTION_DDOT = 0

CCSDS_OMM_VERS = 2.0
CREATION_DATE  = 
ORIGINATOR     = 

OBJECT_NAME    = COSMOS 2221
OBJECT_ID      = 1992-080A
CENTER_NAME    = EARTH
REF_FRAME      = TEME
TIME_SYSTEM    = UTC
MEAN_ELEMENT_THEORY = SGP/SGP4

EPOCH          = 2026-02-08T19:29:09.815424
MEAN_MOTION    = 14.96085391
ECCENTRICITY   = .0012917
INCLINATION    = 82.5055
RA_OF_ASC_NODE = 306.7377
ARG_OF_PERICENTER = 293.3091
MEAN_ANOMALY   = 66.6771

EPHEMERIS_TYPE = 0
CLASSIFICATION_TYPE = U
NORAD_CAT_ID   = 22236
ELEMENT_SET_NO = 999
REV_AT_EPOCH   = 77647
BSTAR          = .2233E-3
MEAN_MOTION_DOT = .2538E-4
MEAN_MOTION_DDOT = 0

CCSDS_OMM_VERS = 2.0
CREATION_DATE  = 
ORIGINATOR     = 

OBJECT_NAME    = SL-16 R/B
OBJECT_ID      = 1992-093B
CENTER_NAME    = EARTH
REF_FRAME      = TEME
TIME_SYSTEM    = UTC
MEAN_ELEMENT_THEORY = SGP/SGP4

EPOCH          = 2026-02-08T11:34:07.232160
MEAN_MOTION    = 14.15440978
ECCENTRICITY   = .00051366
INCLINATION    = 71.0201
RA_OF_ASC_NODE = 65.5825
ARG_OF_PERICENTER = 324.3596
MEAN_ANOMALY   = 35.7184

EPHEMERIS_TYPE = 0
CLASSIFICATION_TYPE = U
NORAD_CAT_ID   = 22285
ELEMENT_SET_NO = 999
REV_AT_EPOCH   = 70902
BSTAR          = -.25880291E-4
MEAN_MOTION_DOT = -.98E-6
MEAN_MOTION_DDOT = 0

CCSDS_OMM_VERS = 2.0
CREATION_DATE  = 
ORIGINATOR     = 

OBJECT_NAME    = COSMOS 2228
OBJECT_ID      = 1992-094A
CENTER_NAME    = EARTH
REF_FRAME      = TEME
TIME_SYSTEM    = UTC
MEAN_ELEMENT_THEORY = SGP/SGP4

EPOCH          = 2026-02-08T18:43:39.330048
MEAN_MOTION    = 14.97057186
ECCENTRICITY   = .0019063
INCLINATION    = 82.5157
RA_OF_ASC_NODE = 264.9937
ARG_OF_PERICENTER = 42.7296
MEAN_ANOMALY   = 317.5404

EPHEMERIS_TYPE = 0
CLASSIFICATION_TYPE = U
NORAD_CAT_ID   = 22286
ELEMENT_SET_NO = 999
REV_AT_EPOCH   = 77173
BSTAR          = .18129E-3
MEAN_MOTION_DOT = .2122E-4
MEAN_MOTION_DDOT = 0

CCSDS_OMM_VERS = 2.0
CREATION_DATE  = 
ORIGINATOR     = 

OBJECT_NAME    = SL-16 R/B
OBJECT_ID      = 1993-016B
CENTER_NAME    = EARTH
REF_FRAME      = TEME
TIME_SYSTEM    = UTC
MEAN_ELEMENT_THEORY = SGP/SGP4

EPOCH          = 2026-02-08T17:33:26.003808
MEAN_MOTION    = 14.15303701
ECCENTRICITY   = .0010304
INCLINATION    = 71.0067
RA_OF_ASC_NODE = 276.0057
ARG_OF_PERICENTER = 353.5784
MEAN_ANOMALY   = 6.5205

EPHEMERIS_TYPE = 0
CLASSIFICATION_TYPE = U
NORAD_CAT_ID   = 22566
ELEMENT_SET_NO = 999
REV_AT_EPOCH   = 69807
BSTAR          = -.59691E-4
MEAN_MOTION_DOT = -.164E-5
MEAN_MOTION_DDOT = 0

CCSDS_OMM_VERS = 2.0
CREATION_DATE  = 
ORIGINATOR     = 

OBJECT_NAME    = COSMOS 2242
OBJECT_ID      = 1993-024A
CENTER_NAME    = EARTH
REF_FRAME      = TEME
TIME_SYSTEM    = UTC
MEAN_ELEMENT_THEORY = SGP/SGP4

EPOCH          = 2026-02-08T18:00:26.555904
MEAN_MOTION    = 14.96428066
ECCENTRICITY   = .0017653
INCLINATION    = 82.5191
RA_OF_ASC_NODE = 294.3959
ARG_OF_PERICENTER = 46.3531
MEAN_ANOMALY   = 313.9151

EPHEMERIS_TYPE = 0
CLASSIFICATION_TYPE = U
NORAD_CAT_ID   = 22626
ELEMENT_SET_NO = 999
REV_AT_EPOCH   = 77606
BSTAR          = .1707E-3
MEAN_MOTION_DOT = .1967E-4
MEAN_MOTION_DDOT = 0

CCSDS_OMM_VERS = 2.0
CREATION_DATE  = 
ORIGINATOR     = 

OBJECT_NAME    = SL-16 R/B
OBJECT_ID      = 1993-059B
CENTER_NAME    = EARTH
REF_FRAME      = TEME
TIME_SYSTEM    = UTC
MEAN_ELEMENT_THEORY = SGP/SGP4

EPOCH          = 2026-02-08T12:55:31.639296
MEAN_MOTION    = 14.17227498
ECCENTRICITY   = .0019494
INCLINATION    = 70.9892
RA_OF_ASC_NODE = 72.6030
ARG_OF_PERICENTER = 256.5658
MEAN_ANOMALY   = 103.3293

EPHEMERIS_TYPE = 0
CLASSIFICATION_TYPE = U
NORAD_CAT_ID   = 22803
ELEMENT_SET_NO = 999
REV_AT_EPOCH   = 67540
BSTAR          = .95937E-4
MEAN_MOTION_DOT = .146E-5
MEAN_MOTION_DDOT = 0

CCSDS_OMM_VERS = 2.0
CREATION_DATE  = 
ORIGINATOR     = 

OBJECT_NAME    = ARIANE 40 R/B
OBJECT_ID      = 1993-061H
CENTER_NAME    = EARTH
REF_FRAME      = TEME
TIME_SYSTEM    = UTC
MEAN_ELEMENT_THEORY = SGP/SGP4

EPOCH          = 2026-02-08T17:15:02.057184
MEAN_MOTION    = 14.32845412
ECCENTRICITY   = .0010831
INCLINATION    = 98.4978
RA_OF_ASC_NODE = 109.1691
ARG_OF_PERICENTER = 16.1931
MEAN_ANOMALY   = 343.9598

EPHEMERIS_TYPE = 0
CLASSIFICATION_TYPE = U
NORAD_CAT_ID   = 22830
ELEMENT_SET_NO = 999
REV_AT_EPOCH   = 68995
BSTAR          = .98269E-4
MEAN_MOTION_DOT = .225E-5
MEAN_MOTION_DDOT = 0

CCSDS_OMM_VERS = 2.0
CREATION_DATE  = 
ORIGINATOR     = 

OBJECT_NAME    = COSMOS 2278
OBJECT_ID      = 1994-023A
CENTER_NAME    = EARTH
REF_FRAME      = TEME
TIME_SYSTEM    = UTC
MEAN_ELEMENT_THEORY = SGP/SGP4

EPOCH          = 2026-02-08T19:30:44.389728
MEAN_MOTION    = 14.14363584
ECCENTRICITY   = .0006624
INCLINATION    = 71.0500
RA_OF_ASC_NODE = 235.5122
ARG_OF_PERICENTER = 68.1749
MEAN_ANOMALY   = 292.0077

EPHEMERIS_TYPE = 0
CLASSIFICATION_TYPE = U
NORAD_CAT_ID   = 23087
ELEMENT_SET_NO = 999
REV_AT_EPOCH   = 64072
BSTAR          = -.52836E-4
MEAN_MOTION_DOT = -.148E-5
MEAN_MOTION_DDOT = 0

CCSDS_OMM_VERS = 2.0
CREATION_DATE  = 
ORIGINATOR     = 

OBJECT_NAME    = SL-16 R/B
OBJECT_ID      = 1994-023B
CENTER_NAME    = EARTH
REF_FRAME      = TEME
TIME_SYSTEM    = UTC
MEAN_ELEMENT_THEORY = SGP/SGP4

EPOCH          = 2026-02-08T15:51:08.563392
MEAN_MOTION    = 14.15003559
ECCENTRICITY   = .0004461
INCLINATION    = 70.9998
RA_OF_ASC_NODE = 131.8537
ARG_OF_PERICENTER = 312.5790
MEAN_ANOMALY   = 47.4956

EPHEMERIS_TYPE = 0
CLASSIFICATION_TYPE = U
NORAD_CAT_ID   = 23088
ELEMENT_SET_NO = 999
REV_AT_EPOCH   = 64198
BSTAR          = .47451E-4
MEAN_MOTION_DOT = .44E-6
MEAN_MOTION_DDOT = 0

